IRIDIUM 155             
1 43573U 18061E   24242.51956407  .00000531  00000+0  18240-3 0  9995
2 43573  86.4009 331.1185 0001940  91.3145 268.8273 14.34220286319236
IRIDIUM 154             
1 43574U 18061F   24242.50053651  .00000357  00000+0  12048-3 0  9990
2 43574  86.4013 331.2275 0002410  94.1454 266.0017 14.34219961319289
IRIDIUM 163             
1 43575U 18061G   24242.48150905  .00000625  00000+0  21592-3 0  9990
2 43575  86.4010 331.1715 0002272  92.0874 268.0582 14.34219843319259
IRIDIUM 156             
1 43576U 18061H   24242.31660155  .00000407  00000+0  13827-3 0  9996
2 43576  86.4012 331.2469 0001995  98.4416 261.7006 14.34218502319221
IRIDIUM 164             
1 43577U 18061J   24242.50688070  .00000160  00000+0  50094-4 0  9998
2 43577  86.4014 331.1974 0002351 100.1638 259.9823 14.34218362319295
IRIDIUM 159             
1 43578U 18061K   24242.54493445  .00000339  00000+0  11409-3 0  9997
2 43578  86.4010 331.1319 0002309  95.9069 264.2390 14.34219735319267
IRIDIUM 180             
1 43922U 19002A   24242.33513113  .00000037  00000+0  60156-5 0  9998
2 43922  86.3914 268.0731 0002438  93.9728 266.1747 14.34218977294841
IRIDIUM 176             
1 43923U 19002B   24242.11508926  .00000722  00000+0  11059-3 0  9998
2 43923  86.6047 268.1811 0002545  94.3471 265.8037 14.72248792302579
IRIDIUM 168             
1 43924U 19002C   24242.32878410  .00000264  00000+0  87195-4 0  9996
2 43924  86.3916 268.1345 0002372  94.0825 266.0642 14.34218162294821
IRIDIUM 173             
1 43925U 19002D   24242.31610472  .00000308  00000+0  10304-3 0  9994
2 43925  86.3912 268.0555 0002411  92.1740 267.9732 14.34220338294805
IRIDIUM 169             
1 43926U 19002E   24242.43711156  .00000868  00000+0  27745-3 0  9997
2 43926  86.4212 299.6509 0002698  48.5758 311.5672 14.38601870295808
IRIDIUM 172             
1 43927U 19002F   24242.30976335 -.00000157  00000+0 -63287-4 0  9991
2 43927  86.3914 268.0640 0002109  92.4122 267.7315 14.34217831294815
IRIDIUM 175             
1 43928U 19002G   24242.72142926  .00001310  00000+0  20370-3 0  9994
2 43928  86.1478 236.9142 0002377  86.7309 273.4179 14.72261292302656
IRIDIUM 171             
1 43929U 19002H   24242.43026635  .00000147  00000+0  45583-4 0  9992
2 43929  86.3923 268.2475 0002192  99.9176 260.2267 14.34217435294823
IRIDIUM 170             
1 43930U 19002J   24242.32518214  .00001001  00000+0  15485-3 0  9998
2 43930  86.6045 268.0984 0002618  91.7210 268.4307 14.72250222302613
IRIDIUM 167             
1 43931U 19002K   24242.77276554  .00000321  00000+0  10758-3 0  9998
2 43931  86.3914 267.8869 0002171  94.6100 265.5343 14.34218910294871
IRIDIUM 181             
1 56726U 23068S   24242.51333787  .00001194  00000+0  34676-3 0  9999
2 56726  86.8669 325.3138 0001870  95.4771 264.6644 14.43589840 67714
IRIDIUM 177             
1 56727U 23068T   24242.37015761  .00003270  00000+0  42675-3 0  9998
2 56727  86.1936 280.6108 0002079  93.0682 267.0777 14.80238883 69201
IRIDIUM 174             
1 56728U 23068U   24242.36472413  .00003650  00000+0  47670-3 0  9991
2 56728  86.1943 280.7229 0001783  97.1805 262.9618 14.80239228 69200
IRIDIUM 178             
1 56729U 23068V   24242.42690528  .00003316  00000+0  43275-3 0  9994
2 56729  86.5773 301.6395 0002076 102.4049 257.7405 14.80247405 69212
IRIDIUM 179             
1 56730U 23068W   24242.42150212  .00003920  00000+0  51301-3 0  9997
2 56730  86.6792 306.7011 0002222  85.7893 274.3582 14.80176844 69219
